1 45226U 20012BA  23141.50849737  .00001538  00000-0  12230-3 0  9996
2 45226  53.0534 279.8535 0001350  95.3197 264.7946 15.06353283181096
1 45226U 20012BA  23141.64119499  .00008566  00000-0  59406-3 0  9990
2 45226  53.0534 279.2580 0001107 101.0735 259.0379 15.06347229181116
1 45226U 20012BA  23141.64119499  .00008566  00000-0  59406-3 0  9990
2 45226  53.0534 279.2580 0001107 101.0735 259.0379 15.06347229180238
1 45226U 20012BA  23142.37102784  .00032489  00000-0  21909-2 0  9997
2 45226  53.0535 275.9815 0001050 101.0368 259.0739 15.06384039180344
1 45226U 20012BA  23142.50372291  .00025977  00000-0  17571-2 0  9998
2 45226  53.0536 275.3861 0001115  98.5171 261.5944 15.06385711181248
1 45226U 20012BA  23142.63641674  .00028403  00000-0  19183-2 0  9994
2 45226  53.0536 274.7906 0001016  96.7440 263.3665 15.06395108181263
1 45226U 20012BA  23143.49893037  .00022171  00000-0  15023-2 0  9996
2 45226  53.0535 270.9189 0001343 106.7073 253.4064 15.06407684180513
1 45226U 20012BA  23143.63162485  .00010812  00000-0  74359-3 0  9995
2 45226  53.0536 270.3237 0001069  80.2302 279.8807 15.06400980181417
1 45226U 20012BA  23143.63162485  .00010812  00000-0  74359-3 0  9995
2 45226  53.0536 270.3237 0001069  80.2302 279.8807 15.06400980180539
1 45226U 20012BA  23144.36142837  .00016528  00000-0  11250-2 0  9995
2 45226  53.0542 267.0432 0000984 111.6565 248.4529 15.06428819180647
1 45226U 20012BA  23144.62680936  .00017701  00000-0  12029-2 0  9990
2 45226  53.0537 265.8554 0000900  80.5135 279.5956 15.06440701181562
1 45226U 20012BA  23146.55085137  .00016381  00000-0  11151-2 0  9994
2 45226  53.0534 257.2200 0001178  91.0945 269.0179 15.06431060181857
1 45226U 20012BA  23146.68354173  .00017458  00000-0  11868-2 0  9998
2 45226  53.0530 256.6225 0001131  83.8414 276.2704 15.06436848181877
1 45226U 20012BA  23147.01527560  .00002641  00000-0  19603-3 0  9992
2 45226  53.0526 255.1338 0001059 110.4655 249.6448 15.06416034181047
1 45226U 20012BA  23147.67874947  .00001707  00000-0  13348-3 0  9990
2 45226  53.0525 252.1556 0001096  97.0869 263.0244 15.06395059182029
1 45226U 20012BA  23147.67874947  .00001707  00000-0  13348-3 0  9990
2 45226  53.0525 252.1556 0001096  97.0869 263.0244 15.06395059181141
1 45226U 20012BA  23148.01048525  .00011655  00000-0  80004-3 0  9990
2 45226  53.0528 250.6659 0001077 100.1657 259.9453 15.06399425182071
1 45226U 20012BA  23148.54125606  .00016513  00000-0  11243-2 0  9990
2 45226  53.0526 248.2843 0000985  91.9879 268.1223 15.06418629182151
1 45226U 20012BA  23148.54125606  .00016513  00000-0  11243-2 0  9990
2 45226  53.0526 248.2843 0000985  91.9879 268.1223 15.06418629181273
1 45226U 20012BA  23149.00568349  .00009103  00000-0  62897-3 0  9996
2 45226  53.0535 246.1977 0001224  77.3745 282.7380 15.06414470181349
1 45226U 20012BA  23149.40376864 -.00004024  00000-0 -25148-3 0  9996
2 45226  53.0545 244.4101 0000963  79.3962 280.7135 15.06387685181402
1 45226U 20012BA  23149.53646322 -.00001106  00000-0 -55411-4 0  9994
2 45226  53.0534 243.8122 0000914  93.5829 266.5264 15.06386775182306
1 45226U 20012BA  23150.39898038  .00012268  00000-0  84113-3 0  9992
2 45226  53.0537 239.9407 0000924  79.7524 280.3569 15.06396910182438
1 45226U 20012BA  23150.39898038  .00012268  00000-0  84113-3 0  9992
2 45226  53.0537 239.9407 0000924  79.7524 280.3569 15.06396910181550
1 45226U 20012BA  23150.92975366  .00010658  00000-0  73315-3 0  9994
2 45226  53.0535 237.5592 0001037  65.4308 294.6789 15.06407668182517
1 45226U 20012BA  23151.46052775  .00005262  00000-0  37181-3 0  9990
2 45226  53.0542 235.1766 0001068  83.6849 276.4262 15.06404850182590
1 45226U 20012BA  23151.46052775  .00005262  00000-0  37181-3 0  9990
2 45226  53.0542 235.1766 0001068  83.6849 276.4262 15.06404850181713
1 45226U 20012BA  23151.92494959  .00007652  00000-0  53181-3 0  9998
2 45226  53.0548 233.0949 0001136  93.7218 266.3901 15.06416857182660
1 45226U 20012BA  23152.45570964  .00015591  00000-0  10620-2 0  9999
2 45226  53.0540 230.7111 0001058  87.9809 272.1301 15.06443374182743
1 45226U 20012BA  23152.52205459  .00014520  00000-0  99046-3 0  9992
2 45226  53.0538 230.4133 0001034  86.3941 273.7166 15.06444001182750
1 45226U 20012BA  23152.52205459  .00014520  00000-0  99046-3 0  9992
2 45226  53.0538 230.4133 0001034  86.3941 273.7166 15.06444001181872
1 45226U 20012BA  23152.98648002  .00000040  00000-0  21579-4 0  9996
2 45226  53.0529 228.3292 0001169  91.5770 268.5353 15.06421492181948
1 45226U 20012BA  23153.51726315 -.00003036  00000-0 -18508-3 0  9997
2 45226  53.0529 225.9446 0000875 100.9202 259.1886 15.06386999182029
1 45226U 20012BA  23154.57882380  .00013310  00000-0  91074-3 0  9992
2 45226  53.0523 221.1792 0000853  99.9337 260.1748 15.06399095183062
1 45226U 20012BA  23154.57882380  .00013310  00000-0  91074-3 0  9992
2 45226  53.0523 221.1792 0000853  99.9337 260.1748 15.06399095182184
1 45226U 20012BA  23154.91056151  .00004439  00000-0  31680-3 0  9998
2 45226  53.0522 219.6875 0000994  97.2100 262.9002 15.06389339183119
1 45226U 20012BA  23154.91056151  .00004439  00000-0  31680-3 0  9998
2 45226  53.0522 219.6875 0000994  97.2100 262.9002 15.06389339182231
1 45226U 20012BA  23155.44133990  .00004132  00000-0  29618-3 0  9992
2 45226  53.0514 217.3059 0000872  98.4653 261.6435 15.06391589183194
1 45226U 20012BA  23155.90576744  .00005728  00000-0  40310-3 0  9995
2 45226  53.0525 215.2205 0000862 100.1885 259.9201 15.06399581183262
1 45226U 20012BA  23156.43653760  .00007754  00000-0  53872-3 0  9996
2 45226  53.0521 212.8380 0000853  92.1976 267.9110 15.06411090182465
1 45226U 20012BA  23156.56923034  .00007606  00000-0  52875-3 0  9992
2 45226  53.0520 212.2426 0000854  90.2414 269.8673 15.06412250183360
1 45226U 20012BA  23157.36539516  .00002344  00000-0  17619-3 0  9990
2 45226  53.0520 208.6697 0000871  80.0969 280.0119 15.06402995182601
1 45226U 20012BA  23157.43174182  .00002793  00000-0  20626-3 0  9992
2 45226  53.0519 208.3719 0000845  81.9216 278.1869 15.06403590183497
1 45226U 20012BA  23157.56443609  .00002275  00000-0  17153-3 0  9995
2 45226  53.0519 207.7762 0000873  79.7015 280.4072 15.06401714183512
1 45226U 20012BA  23158.49328757  .00006981  00000-0  48695-3 0  9997
2 45226  53.0518 203.6062 0000919  81.8431 278.2662 15.06410903183651
1 45226U 20012BA  23158.49328757  .00006981  00000-0  48695-3 0  9997
2 45226  53.0518 203.6062 0000919  81.8431 278.2662 15.06410903182773
1 45226U 20012BA  23158.82502251  .00002554  00000-0  19025-3 0  9994
2 45226  53.0518 202.1171 0000899  80.7229 279.3862 15.06404109183707
1 45226U 20012BA  23158.82502251  .00002554  00000-0  19025-3 0  9994
2 45226  53.0518 202.1171 0000899  80.7229 279.3862 15.06404109182829
1 45226U 20012BA  23159.35580186 -.00000607  00000-0 -21869-4 0  9995
2 45226  53.0516 199.7341 0000972  80.5527 279.5571 15.06393368182900
1 45226U 20012BA  23159.48849699  .00000473  00000-0  50665-4 0  9991
2 45226  53.0517 199.1383 0000987  79.5918 280.5182 15.06394335183804
1 45226U 20012BA  23160.08561358  .00001437  00000-0  11534-3 0  9994
2 45226  53.0526 196.4581 0001050  83.9790 276.1318 15.06404341183017
1 45226U 20012BA  23160.41734595  .00001566  00000-0  12394-3 0  9994
2 45226  53.0521 194.9688 0000989  86.7930 273.3172 15.06405330183948
1 45226U 20012BA  23160.81543001 -.00001230  00000-0 -63722-4 0  9990
2 45226  53.0516 193.1815 0000884  79.9259 280.1830 15.06398763184003
1 45226U 20012BA  23160.81543001 -.00001230  00000-0 -63722-4 0  9990
2 45226  53.0516 193.1815 0000884  79.9259 280.1830 15.06398763183125
1 45226U 20012BA  23161.34621272  .00000184  00000-0  31232-4 0  9992
2 45226  53.0515 190.7982 0000918  81.7233 278.3860 15.06389146184086
1 45226U 20012BA  23161.34621272  .00000184  00000-0  31232-4 0  9992
2 45226  53.0515 190.7982 0000918  81.7233 278.3860 15.06389146183209
1 45226U 20012BA  23161.81064168  .00000463  00000-0  49971-4 0  9998
2 45226  53.0527 188.7140 0000938  78.0373 282.0721 15.06394322184156
1 45226U 20012BA  23162.07602585  .00000443  00000-0  48624-4 0  9990
2 45226  53.0525 187.5221 0000919  76.8612 283.2480 15.06398931183314
1 45226U 20012BA  23162.54045312  .00000467  00000-0  50256-4 0  9991
2 45226  53.0526 185.4372 0000940  75.3021 284.8072 15.06400112184265
1 45226U 20012BA  23163.46931195  .00001535  00000-0  12195-3 0  9992
2 45226  53.0533 181.2672 0000928  71.6382 288.4708 15.06396042184403
1 45226U 20012BA  23163.73469717  .00001874  00000-0  14469-3 0  9990
2 45226  53.0534 180.0759 0000941  71.4382 288.6710 15.06399334184446
1 45226U 20012BA  23163.73469717  .00001874  00000-0  14469-3 0  9990
2 45226  53.0534 180.0759 0000941  71.4382 288.6710 15.06399334183568
1 45226U 20012BA  23164.72989710  .00001208  00000-0  99986-4 0  9999
2 45226  53.0536 175.6084 0000996  72.6472 287.4626 15.06403309184599
1 45226U 20012BA  23165.06163776  .00000199  00000-0  32268-4 0  9991
2 45226  53.0538 174.1188 0001033  76.6873 283.4231 15.06395181183766
1 45226U 20012BA  23165.45971883  .00000212  00000-0  33138-4 0  9993
2 45226  53.0537 172.3318 0001051  73.3928 286.7176 15.06396178184701
1 45226U 20012BA  23165.72510526  .00000247  00000-0  35447-4 0  9999
2 45226  53.0538 171.1404 0001062  73.3583 286.7523 15.06397587184749
1 45226U 20012BA  23166.38857078  .00000037  00000-0  21371-4 0  9996
2 45226  53.0536 168.1617 0001050  72.6392 287.4712 15.06400102184843
1 45226U 20012BA  23166.38857078  .00000037  00000-0  21371-4 0  9996
2 45226  53.0536 168.1617 0001050  72.6392 287.4712 15.06400102183965
1 45226U 20012BA  23166.72030576  .00000161  00000-0  29687-4 0  9996
2 45226  53.0536 166.6726 0001012  73.3946 286.7154 15.06397807184892
1 45226U 20012BA  23167.31742621  .00001030  00000-0  88052-4 0  9990
2 45226  53.0535 163.9919 0001002  73.2722 286.8377 15.06398189184987
1 45226U 20012BA  23167.71550368  .00001342  00000-0  10896-3 0  9995
2 45226  53.0537 162.2049 0001010  72.5614 287.5485 15.06401936185047
